name,address,horairesOuverture,latitude,longitude
Musée de l'Armée,Rue de Grenelle 75007,Nov-Mar: Mo-Su 10:00-17:00; Apr-Oct: Mo-Su 10:00-18:00; Apr-Sep: Tu 21:00+; Jan 1 off; May 1 off; Dec 25 off,48.8570374,2.3118779
Musée des Arts Décoratifs - Musée de la Publicité,75001,,48.8631692,2.3329513
Musée des Arts et Métiers,Rue Réaumur 75003,Fr-We 10:00-18:00; Th 10:00-21:30,48.8660977,2.3554138
Tour de Jean-sans-Peur,,We-Su 13:30-18:00,48.8643016,2.3480523
Visite des Égouts de Paris,Quai d'Orsay 75007,closed,48.8626245,2.3025393
Musée Grévin,Boulevard Montmartre 75009,"Mo-Fr 09:30-18:30; Sa,Su 09:30-19:00",48.8718365,2.3420974
Musée Edith Piaf,,"Mo-We 13:00-18:00; Th 10:00-12:00 ""mandatory reservation by phone""",48.8662368,2.3817367
Musée Pasteur,Rue du Docteur Roux 75015,"""Fermé temporairement pour travaux.""",48.8403827,2.3113658
Cité des Sciences et de l'Industrie,Avenue Corentin Cariou 75019,Tu-Sa 10:00-18:00; Su 10:00-19:00,48.8957518,2.3879761
Maison de Victor Hugo,Place des Vosges 75004,Tu-Su 10:00-18:00,48.854799,2.3661358
Lelong & Co.,Avenue Matignon 75008,,48.872513,2.3148624
Piscine Suzanne Berlioux,75001,,48.8626842,2.3440139
Piscine Jean Boiteux,Rue Antoine-Julien Hénard 75012,"Mo 11:30-13:30; Tu 7:00-8:30,11:30-13:30; We 7:00-8:30,11:30-18:00; Th 7:00-8:30,11:30-13:30,16:45-22:00; Fr 7:00-8:30,11:30-13:30; Sa 10:00-13:00,14:00-18:00; Su 8:00-13:00,14:00-18:00",48.8420878,2.3892984
Maison Européenne de la Photographie,Rue de Fourcy 75004,We-Su 11:00-20:00,48.8551205,2.3589562
Musée de l'Eventail,,Mo-We 14:00-18:00,48.8695018,2.3546892
Musée de la Poupée,Impasse Berthaud 75003,Tu-Sa 10:00-18:45,48.8616153,2.3542965
Catacombes de Paris,Avenue du Colonel Henri Rol Tanguy 75014,Tu-Su 10:00-20:30,48.8337437,2.3322959
Les Cercles de la Forme Bastille,Rue Traversière 75012,,48.8510187,2.3762208
Le Petit Bouillon Pharamond,Rue de la Grande Truanderie 75001,Mo-Su 12:00-24:00,48.8629978,2.3484965
Crossfit Lutèce,,Mo-Su 07:00-22:00,48.8447088,2.286911
L'Usine Beaubourg,Rue Quincampoix 75004,Mo-Su 07:00-23:00,48.8598439,2.350035
Centre sportif Saint-Merri,Rue du Renard 75004,"Tu 07:00-08:30, 11:30-13:00; We, Fr 07:00-18:00; Th 07:00-08:30, 11:30-13:30, 16:30-22:00; Sa 07:00-08:00, 18:00-18:00",48.8589952,2.3527092
Omm Studio,Rue Saint-Gilles 75003,,48.8578695,2.3666476
Gymnase Buffon,,"""Gymnase pas en accès libre""",48.8426503,2.3623493
Musée du Petit Palais,Avenue Winston Churchill 75008,Tu-Su 10:00-18:00,48.8660456,2.3145051
Musée de la Légion d'Honneur et des Ordres de Chevalerie,,"We-Su 13:00-18:00; Jan 1,May 1,Aug 15,Nov 1,Dec 25 off",48.8602845,2.3247488
Conciergerie,,Mo-Su 09:30-18:00,48.8559492,2.3460263
Brasserie Bofinger,,"Mo-Sa 12:00-15:00, 18:30-00:00; Su 12:00-15:00, 18:30-23:00",48.8539095,2.3680433
Musée de la Poste,,Mo-Sa 10:00-18:00,48.8414574,2.3172246
Galerie-musée Baccarat,,Mo 10:00-18:00; We-Sa 10:00-18:00,48.8677629,2.2935696
Salle des collections,Rue du Cinéma,"Tu-Fr 13:00-21:00; Sa,Su 14:00-21:00",48.8625016,2.3453019
La Galerie des Enfants,,We 10:00-18:00; Sa-Su 10:00-18:00; SH Mo 10:00-18:00; SH We-Su 10:00-18:00; May 01: off,48.8425172,2.3561671
Musée du Service de Santé des Armées,,"Jan-Jul,Sep-Dec: Tu-Su 12:00-18:00; Fr off; Jan 01,May 01,Dec 25 off",48.8403652,2.3414281
Le Petit Journal Saint-Michel,Boulevard Saint-Michel,,48.8463439,2.340575
Choco-Story - Le musée gourmand du chocolat,,Mo-Su 10:00-18:00; Jan 01: off; Dec 25: off,48.8705899,2.3500828
Phono Museum,Boulevard de Rochechouart 75009,Th-Su 14:00-18:00,48.8821281,2.3413659
Cabinet de curiosités,Passage Verdeau,,48.8733087,2.3423149
Kiwill - Spinning,Rue du Grand Prieuré 75011,,48.8661869,2.3681993
Cité de l'architecture et du patrimoine,Place du Trocadéro et du 11 Novembre 1918 75016,"Mo,We,Fr,Sa,Su 11:00-19:00; Th 11:00-21:00",48.8629386,2.2890051
Musée de la Marine,,"Mo,We,Th,Fr 11:00-18:00; Sa,Su 11:00-19:00; May 1 off; Dec 25 off; Jan 1 off; Tu off",48.8618163,2.2873421
Studio Harmonic,Passage des Taillandiers,,48.8538635,2.3747072
Piscine Rouvet,Rue Rouvet 75019,,48.8930004,2.3849571
Galerie Magnum Photos,Rue Léon Frot 75011,Tu-Fr 10:00-19:00; Sa 11:00-19:00,48.8568392,2.3854751
Dojo Shin Kaï (PUC),Avenue Pierre de Coubertin,,48.8174286,2.3459309
Musée de la Franc-Maçonnerie,,"Tu-Fr 10:00-12:30,14:00-18:00; Sa 10:00-13:00,14:00-19:00; Su 10:00-12:30,14:00-18:00",48.8749151,2.3431481
Espace des Sciences Pierre-Gilles de Gennes,,Tu-Sa 14:00-17:00,48.8411575,2.3473052
Fondation Le Corbusier,75016,Tu-Sa 10:00-18:00; Mo 13:30-18:00,48.851907,2.265225
Musée de la Contrefaçon,,Tu-Su 14:00-17:30,48.8703234,2.2765175
Musée des Arts Forains,Avenue des Terroirs de France 75012,,48.8327663,2.3893382
Musée Adam Mickiewicz,Rue d'Arcole,,48.8513494,2.355588
Musée d'histoire de la Médecine,,"Mo-We,Fr,Sa 14:00-17:30",48.8513247,2.3409022
Musée Maillol,Rue de Grenelle 75007,,48.8547304,2.3248616
Musée du Montparnasse - Villa Vassilieff,,Tu-Sa 11:00-19:00,48.8435077,2.3207897
Musée de Minéralogie,,"Tu-Fr 13:30-18:00; Sa 10:00-12:30,14:00-17:00",48.8453935,2.3394599
Bibliothèque-Musée de l'Opéra,,Mo-Su 10:00-17:00,48.871882,2.331212
Dora Maar,1 place Saint-Geramain-des-Prés,,48.8542921,2.3338906
Le Stadium,,Mo-Sa 08:00-22:30; Su 08:00-18:00,48.8246226,2.3640512
Les Cercles de la Forme,Avenue Simón Bolívar 75019,,48.8789056,2.3745296
Tours de Notre-Dame,,Jan-Mar Mo-Su 10:00-17:30; Apr-Jun Mo-Su 10:00-18:30; Jul-Aug Mo-Th 10:00-18:30; Fr-Sa 10:00-23:00; Su 10:00-18:30; Sep-Oct Mo-Su 10:00-18:30; Nov-Dec Mo-Su 10:00-17:30; Jan 01 off; May 01 off; Dec 25 off,48.8533658,2.3493036
Fitness Park,Avenue de la République 75011,"Mo-Su,PH 05:00-00:30",48.8667969,2.3674379
Le Spa Bercy,Rue de l'Ambroisie 75012,,48.8348794,2.3849108
La Grisette de 1830,75011,,48.8685964,2.3674458
Bodyhit Paris 9 Place De Clichy Electrostimulation,,"Mo-Fr 08:00-14:00, 17:00-21:00; Sa 09:00-12:30, 13:30-18:00",48.88208,2.327984
Piscine Paul Valeyre,,"Mo,Tu,Th,Fr 07:00-08:15,11:30-13:15, Tu 17:00-21:30, We 11:30-17:30, Sa 07:00-21:30, Su 08:00-17:30",48.8778547,2.3450664
Le Trésor de Notre-Dame,,Mo-Fr 09:30-18:00; Sa 09:30-18:30; Su 13:30-18:30,48.8526313,2.3500601
Ritm - St Germain,,Mo-Fr 07:00-22:00; Sa-Su 09:00-19:00,48.8507196,2.34512
Championnet Sports,Rue Georgette Agutte 75018,,48.8955208,2.3329785
Fitness Park,Rue de Bagnolet 75020,"Mo-Th 06:00-23:00, Fr 06:00-23:00, Sa 06:00-23:00, Su 06:00-23:00",48.8575943,2.3991949
PA-831,Rue d'Avron 75020,,48.8519395,2.4012255
Gymnase Daumesnil,Avenue Daumesnil,"""Gymnase municipal pas en accès libre""",48.8445603,2.3806117
Musée National d'Art Moderne,,"Mo,We-Su 11:00-21:00",48.860324,2.3522598
Ozuvé,,Mo-Sa 09:00-20:30; Su 14:00-20:00; PH 10:00-19:00,48.8321711,2.3609331
Forest Hill Aquaboulevard,,7:00-0:00,48.8306746,2.2755394
Carrefour numérique²,,Tu-Su 12:00-18:45,48.8956061,2.3884599
Aquarium Tropical,,Tu-Fr 10:00-17:30; Sa-Su 10:00-19:00; Dec 25 off; Jan 01 off; May 01 off,48.8352322,2.4090232
Piscine Mathis,,"Mo,Tu,Th,Fr 07:00-08:30, Mo 11:30-13:00, Tu,Th,Fr 11:30-13:30; Sa 07:00-18:00; Su 08:00-18:00; Th 11:30-22:00",48.8907179,2.3749478
Fitness Parc,,Mo-Su 06:00-23:00,48.8263166,2.3268967
Art Ludique - Le Musée,,"Mo-Th 11:00-19:00; Fr 11:00-22:00; Sa,Su 10:00-20:00",48.8405179,2.3703276
Collection des minéraux,Place Jussieu,Tu-Sa 13:00-18:00; Su off;Mo off,48.8475408,2.3548406
CMG Sports Club,Rue de Rennes 75006,,48.8455181,2.3257137
CMG Sports Club,Rue Vandrezanne 75013,,48.8280184,2.354598
CMG Sports Club,Rue du Faubourg du Temple 75011,Mo-Fr 07:30-22:00; Sa 08:00-19:00; Su 09:00-18:00,48.8678291,2.365101
Salle de sports Reims,Boulevard de Reims 75017,,48.888911,2.296331
La tête dans les nuages,Boulevard des Italiens 75002,"Mo-Th 11:00-00:30, Fr 11:00-02:00, Sa 10:00-02:00, Su 10:00-00:30",48.8716822,2.3393686
La Paillasse,,Th 20:00+,48.8683141,2.3525857
WoMa,Rue Léon Giraud 75019,,48.8878762,2.3826806
Espace Reine de Saba,Rue Pradier 75019,,48.8762675,2.3826909
CMG Sports Club,Avenue du Général Leclerc 75014,,48.8319417,2.3296439
easyGym Paris Palais Royal,Rue Saint-Honoré 75001,,48.8619441,2.3398249
CMG Sports Club,Rue des Colonnes du Trône 75012,,48.846362,2.3987565
CMG Sports Club,Rue des Pirogues de Bercy 75012,,48.8332742,2.3875235
CMG Sports Club,Rue Chanez 75016,,48.8469752,2.2598207
Musée du Barreau de Paris,,Sa-Su 10:00-17:00,48.8640506,2.3450724
Galerie du Génie de la Bastille,,Tu-Su 14:00-20:00,48.8550397,2.3870757
Ritm - Ternes,,Mo-Fr 07:00-22:00; Sa-Su 09:00-19:00,48.879407,2.290025
Les Cercles de la Forme,Rue Saint-Lazare 75009,,48.876168,2.3279687
Les Cercles de la Forme,Rue de Malte 75011,,48.8637723,2.3689022
Les Cercles de la Forme,Boulevard Diderot 75012,,48.8478048,2.3922985
Les Cercles de la Forme,Rue du Faubourg Saint-Antoine 75012,,48.8494268,2.388118
Les Cercles de la Forme,Boulevard Raspail 75014,,48.8401199,2.3299657
Les Cercles de la Forme,Rue du Mont Cenis 75018,,48.8965215,2.3464068
Alain Marcelpoil,,"Tu-Sa 11:00-13:00,14:00-19:00",48.8555653,2.3366336
Artpark,,"Mo,Fr 13:00-17:00",48.8556196,2.3693761
Mahatsara,,We-Sa 11:00-19:00,48.8629618,2.368323
Galerie Perrotin,75003,,48.8607381,2.3651675
WhiteProjects,,Tu-Fr 14:00-19:00;Sa 11:00-19:00,48.8601811,2.3651665
Galerie SEE Studio,Rue Saint-Claude 75003,,48.8600502,2.3659112
Addict,,Tu-Sa 11:00-19:00,48.8598798,2.3632078
Galerie de Multiples,,Tu-Sa 11:00-19:00,48.8580178,2.3650861
Clarté,Rue Marcadet 75018,,48.8912396,2.3386816
Espace Henri Landier,Rue des Trois Frères 75018,,48.8846835,2.3411677
Musée d'Histoire contemporaine,,"""Sur RDV""",48.8566677,2.3132514
Musée de l'Ordre de la Libération,,"Apr 01-Oct 31: Mo-Su 10:00-18:00; Nov 01,Mar 31: Mo-Su 10:00-17:00",48.8556933,2.311332
Musée des Plans-Reliefs,,Oct-Mar: Mo-Su 10:00-17:00; Apr-Sep: Mo-Su 10:00-18:00; Mo[1] off; Jan 1 off; May 1 off; Nov 1 off; Dec 25 off,48.8564589,2.3132374
Sun City,Boulevard de Sébastopol 75003,Mo-Su 12:00-06:00,48.8638015,2.351465
Gym Louvre,Rue du Louvre 75001,Mo-Sa 09:00-02:00; Su 12:00-02:00,48.8622198,2.3413329
IDM,,Mo-Su 12:00-01:00,48.8717527,2.3432696
Neoness,,Mo-Fr 07:00-22:00; Sa 09:00-19:00; Su 09:00-17:00,48.845331,2.2842075
Les bains du Temple,,"Tu-We,Fr,Su 12:00-20:00; Th 12:00-22:00; Sa 10:00-20:00",48.8684325,2.3657718
"Gymnase Victor ""Young"" Perez",Rue de Bercy 75012,,48.8472496,2.3691343
Le Cercle Saint-Jacques,,"Mo-Fr 07:30-22:00, Sa-Su 09:00-18:30",48.8316452,2.3374329
Zürcher,,Tu-Sa 12:00-19:00,48.8642603,2.3538755
Liberty Gym,Boulevard de Bercy 75012,"Mo-Su,PH 06:00-23:00",48.8386474,2.3881923
ArtLigue,Rue des Arquebusiers 75003,,48.8593536,2.3666795
Om sweet om,Rue Camille Desmoulins 75011,,48.8593169,2.3819716
Musée de l'Homme,,"We-Mo,PH 10:00-18:00",48.8622099,2.2873776
Extra Life Café,Passage des Patriarches 75005,"Mo,We-Sa 14:00-22:00; Su 14:00-20:00",48.8410843,2.3500396
Eiffel Tower,South Collegiate Drive 75460,,33.6398652,-95.5238698
Galerie 110,Rue Saint-Honoré 75001,,48.8616703,2.3417103
Squash Montmartre,Rue Achille Martinet 75018,,48.892187,2.3370742
galerie Daniel Maghen,Quai des Grands Augustins 75006,Tu-Sa 11:00-19:00,48.8549633,2.3417751
Musée en Herbe,,Mo-We 10:00-19:00; Th 10:00-21:00; Fr-Su 10:00-19:00,48.8601457,2.3421021
Lab86 / Le Petit FabLab de Paris / Ici et Lab,Avenue Philippe Auguste 75011,Mo-Sa 10:00-23:00,48.8552021,2.3919497
Euro Men's Club,,Mo-Su 11:30-20:30,48.8718836,2.3419777
Hammam Paris,,Su-Th 12:00-22:00; Fr-Sa 12:00-21:00,48.8693154,2.3450151
Les Bains Thai,,Mo-Su 12:00-22:00,48.8431907,2.2980892
Til't Sauna,,Mo-Su 12:00-07:00,48.866537,2.3355396
Le Riad,,Mo-Su 12:00-24:00,48.8624766,2.4002509
IDM Sauna,Rue du Faubourg Montmartre 75009,Mo-Su 12:00-01:00,48.8716127,2.3445693
High Hopes,Avenue de la Porte d'Italie 75013,,48.8171229,2.3604756
Les Bains d'Odessa,Rue d'Odessa 75014,,48.8428482,2.3247858
Yellow Cube Gallery Bookstore,,Tu-Sa 10:00-19:00,48.8287808,2.372769
Kâyastha Yoga,,Mo-Su 09:30-21:30,48.8238933,2.335824
Rue des Eaux,Rue des Eaux,,48.8575654,2.28408
Champs Élysées,Promenade des Champs-Élysées,,48.8707573,2.3053312
Christian Berst | Art Brut,Passage des Gravilliers 75003,Tu-Sa 14:00-19:00,48.8633879,2.3567413
Galerie Chantal Crousel,Rue Charlot 75003,Tu-Sa 11:00-19:00,48.8614274,2.3610633
MFC-Michèle Didier,Rue Notre-Dame-de-Nazareth 75003,Tu-Sa 12:00-19:00,48.867794,2.3565151
Campoli Presti,Rue de Braque 75003,"Tu-Sa 11:00-13:00, 14:00-19:00",48.8609574,2.3568683
Galerie Anne Barrault,Rue des Archives 75003,Tu-Sa 11:00-19:00,48.8610361,2.3577199
Martine Aboucaya,Rue Sainte-Anastase 75003,Tu-Sa 12:00-19:00,48.8595227,2.3640273
Galerie Jean Brolly,,Tu-Sa 11:00-19:00,48.862927,2.35596
Galerie Thomas Bernard | Cortex Athletico,Rue des Arquebusiers 75003,Tu-Sa 10:30-19:00,48.859655,2.3665376
Théâtre-musée des Capucines,,Mo-Sa 09:00-18:00,48.8698912,2.3291888
Dominique Fiat,,Tu-Sa 11:00-19:00,48.8602118,2.3622826
Peter Freeman Inc.,Rue Quincampoix 75004,Tu-Sa 11:00-19:00,48.8616138,2.3506429
Galerie Laurent Gaudin,,Tu-Sa 11:00-19:00,48.8626085,2.353746
Galerie Christophe Gaillard,Rue Chapon 75003,"Tu-Fr 10:30-12:30, 14:00-19:00; Sa 12:00-19:00",48.8629831,2.3572367
GB Agency,Rue des Quatre Fils 75003,"Tu-Sa 11:00-13:00, 14:00-19:00",48.8607952,2.3594605
Galerie Frank Elbaz,,Tu-Sa 11:00-19:00,48.8596428,2.3647824
Galerie les filles du calvaires,Rue des Filles du Calvaire 75003,Tu-Sa 11:00-18:30,48.8628336,2.365918
Galerie Eric Dupont,Rue du Temple 75003,Tu-Sa 11:00-19:00,48.8637438,2.3587222
Patricia Dorfmann,,Tu-Sa 14:00-19:00,48.8579918,2.3526611
Galerie Jousse Entreprise,Rue Saint-Claude 75003,Tu-Sa 11:00-19:00,48.860169,2.3667208
Jeanne Bucher Jaeger,Rue de Saintonge 75003,Tu-Sa 10:00-19:00,48.8611539,2.3615703
Galerie Bernard Jordan,,Tu-Sa 14:00-19:00,48.864333,2.3641296
Florence Loewy,Rue de Thorigny 75003,Tu-Sa 14:00-19:00,48.8599573,2.3630152
In Situ | Fabienne Leclerc,Boulevard de la Chapelle 75018,,48.884627,2.3637061
Galerie Alain Gutharc,Rue Saint-Claude 75003,"Tu-Sa 11:00-13:00, 14:00-19:00",48.8600138,2.3659661
Galerie Max Hetzler,Rue du Temple 75004,Tu-Sa 11:00-19:00,48.8602395,2.3545456
Kikentai,Avenue Jean Jaurès 75019,,48.8873017,2.3851061
Draft Ateliers,Esplanade Nathalie Sarraute 75018,Mo-Fr 10:00-20:00; Sa-Su Off,48.8879359,2.3624596
Place de la Concorde,Place de la Concorde,,48.8663858,2.3218104
Fitness Park,,Mo-Fr 08:30-21:30; Sa 09:00-19:00; Su 10:00-16:00,48.8293424,2.3757194
Musée des Archives nationales,Rue des Francs Bourgeois,"Mo,We-Fr 10:00-17:30, Sa,Su 14:00-17:30",48.8598523,2.3596128
RAR Crossfit,Boulevard Gouvion-Saint-Cyr,Mo-Fr 09:00-22:00; Sa 09:00-16:00,48.884562,2.2902319
Centre Paris Anim' Nouvelle Athènes,Rue de la Tour des Dames 75009,,48.877902,2.332769
Musée Boleslas Biegas,Rue d'Arcole,,48.8513131,2.35562
Coin-Op Table,Rue de Maubeuge 75009,"We-Sa 12:00-23:00, Tu 12:00-15:00, Su 12:00-17:00",48.8777223,2.3434569
Da Vinci Art,Rue de Cléry 75002,,48.8693827,2.3505693
Sortie des Catacombes,Avenue René Coty 75014,Tu-Su 10:00-20:30,48.8295257,2.3345327
Boutique du Musée de la Poste,,Mo-Fr 10:00-18:00,48.8434128,2.320792
Bastille Design Center,Boulevard Richard-Lenoir 75011,,48.8609243,2.3729848
Keep Cool,,Mo-Su 06:00-23:00,48.8761189,2.3380306
Escape Hunt,,Mo-Su 10:00-22:00,48.8701261,2.3353546
Destination Danger,,Mo-Su 14:00-22:00,48.8473754,2.3789025
Club Lafayette,,"Mo-Fr 12:00-14:00,16:30-20:00",48.8774827,2.3522306
MindOut,Rue de Turbigo 75003,"Mo 17:15-22:00; Tu-We off; Th-Fr 17:15-22:00; Sa 13:40-22:30; Su 13:40-19:00; ""Winter Holidays"" Mo 17:15-22:00; ""Winter Holidays"" Tu-We 13:40-19:00; ""Winter Holidays"" Th 13:40-22:00; ""Winter Holidays"" Fr 13:40-18:00; ""Winter Holidays"" Sa off; ""Winter Holi",48.864722,2.3522568
Terrass'' Hôtel,75018,,48.8865996,2.3328662
Musée National de l'Histoire de l'Immigration,Avenue Daumesnil 75012,Tu-Fr 10:00-17:30; Sa-Su 10:00-19:00,48.8351424,2.4093613
Japanesque,,Tu-Sa 11:00-19:00,48.8515298,2.3372487
Echomusée - Goutte d'Or,Rue Cavé 75018,Mo-Sa 14:00-19:00,48.886666,2.3537812
Galerie Art'Et'Miss,Rue Sainte-Anastase 75003,We-Sa 12:00-19:00; Su 14:00-19:00,48.8597813,2.363591
La Ralentie,Rue de la Fontaine au Roi,"Mo-We,Su off; Th-Sa 14:00-19:00",48.868251,2.3710416
Neoness Paris Batignolles - Place de Clichy,Rue Bernard Buffet 75017,,48.8923293,2.3158391
Les Douches La Galerie,,We-Sa 14:00-19:00,48.8722564,2.3617467
Arkose Nation,Rue des Grands Champs 75020,Mo-Fr 08:00-24:00; Sa-Su 09:00-24:00,48.8511883,2.4023078
CMG Sports Club,Rue Boursault,,48.8832688,2.3203913
Galerie Treize-Dix,Rue Taylor 75010,,48.8696083,2.3593124
Gygagym,,"Mo-Fr 06:30-23:00; Sa 09:00-20:00; Su,PH 09:00-17:00",48.8246821,2.3644415
Gymnase,,24/7,48.8415927,2.3450771
Patinoire Sonja Henie,Quai de Bercy 75012,,48.8382949,2.3785653
Barthélémy,,"Tu-Th 08:30-13:30,15:30-19:15; Fr-Sa 08:30-19:00",48.8544952,2.3255993
Musée de la Musique,Avenue Jean Jaurès 75019,"Tu-Fr 12:00-18:00; Sa,Su 10:00-18:00",48.8901928,2.393712
Galerie L77,Rue Lepic 75018,,48.8874039,2.336629
gca gallery,,Th-Sa 14:30-19:00,48.8259787,2.3819223
Art & Craft Gallerie,,We-Su 11:00-19:00,48.8260811,2.3822656
Les cercles de la forme,,"Mo-Fr 07:30-22:00; Sa, Su 10:00-19:00",48.8589249,2.3494495
Basic-Fit,Rue Crozatier 75012,"Mo-Fr 08:00-22:30, Sa-Su 09:00-16:00",48.8460377,2.3821436
Rue Crémieux,Rue Crémieux,,48.8467521,2.3706394
Musée de la psychiatrie et des neurosciences,Rue Cabanis 75014,,48.8287664,2.3391411
Pont du Carroussel,Pont du Carrousel,,48.8592971,2.3328879
Pont Morland,Pont Morland,,48.8471128,2.3659914
Angle des rues des Saules et Francœur,Rue des Saules,,48.8908314,2.3405192
Rue des Rosiers,Rue des Rosiers,,48.8577892,2.3581374
Rue des barres,Rue des Barres,,48.8552091,2.3551463
Square de Montsouri,Square de Montsouris,,48.8236132,2.3336268
Rue Lamarck,Rue Lamarck,,48.8888739,2.3438778
Rue de l'Abreuvoir,Rue de l'Abreuvoir,,48.8882109,2.3389711
Untitled Factory,Rue Gabrielle 75018,Mo-Su 10:00-20:00,48.8861307,2.3396261
Galerie Camera Obscura,Boulevard Raspail 75014,Tu-Fr 12:00-19:00; Sa 11:00-19:00,48.8368737,2.3311834
Galerie Thierry Bigaignon,Rue Charlot 75003,Tu-Sa 12:00-19:00,48.861464,2.360649
Galerie Robillard,Rue de la Folie-Méricourt 75011,,48.8678867,2.3689829
Les Caves du Louvre,,Mo-Sa 14:00-18:00; Su 09:00-18:00,48.860924,2.3425985
Yoga Garden Rive Gauche,Rue Campagne Première 75014,,48.8401779,2.3333016
Phobia,Rue Jeanne d'Arc 75013,,48.8351638,2.3609876
Key West,Rue La Fayette 75010,Mo-Su 12:00-01:00,48.8790695,2.3554051
Frédéric Got,,Tu-Sa 10:30-19:30,48.8556552,2.3368271
Crack the egg,Avenue Daumesnil 75012,,48.8457564,2.3780961
Le Prométhée,Place Saint-Germain-des-Prés,,48.8542239,2.3333931
Neoness Paris Saint-Lazare,Rue de Clichy,Mo-Fr 07:00-22:00; Sa 09:00-19:00; Su 09:00-17:00,48.8796651,2.3293373
Esperance de Reuilly,Boulevard Carnot 75012,,48.8430158,2.4127225
Cercles de la forme,,"Mo-Fr 07:00-22:00; Sa,Su 09:00-19:00",48.8615523,2.3525358
La rivière des chèvres,,Mo-Su 10:00-19:30,48.8788389,2.2611224
Wildness,,"Tu-Fr 16:00-22:00; We,Sa 12:00-22:00; Su 11:00-17:00",48.826625,2.3728229
L'Antichambre Saint-Martin,Boulevard Saint-Martin 75003,,48.8687875,2.3557922
Fitness Park,Boulevard Diderot 75012,Mo-Fr 08:30-21:30; Sa 09:00-19:00; Su 10:00-16:00,48.846424,2.3804172
Aqua Loft,,Mo-Th 08:30-22:00; Fr 09:00-21:00; Sa 09:00-18:00; Su 10:00-18:00,48.8384135,2.260677
Fondation d'entreprise Ricard,,Tu-Sa 11:00-19:00,48.8682399,2.3216077
Rasa Yoga Rive Gauche,Rue Saint-Jacques,,48.8515214,2.3461719
CanalCentral,Rue Lucien Sampaix 75010,"Mo-We 10:00-14:00,17:30-20:30; Sa 10:00-15:00",48.8717487,2.3606113
Centre sportif Saussure,Georges Picquart,,48.888964,2.3095052
Ownsport,Rue La Fayette 75010,Mo-Sa 08:00-20:00,48.8806979,2.3627993
Galerie P38,,We-Sa 14:00-19:00,48.8884922,2.3546465
Rinomina,Rue du Petit Musc 75004,,48.8528604,2.364073
VirtualTime,Rue d'Aboukir 75002,,48.8670766,2.3450061
La Pièce,,Mo-Su 10:00-20:30,48.8707334,2.3538439
The Game,Rue du Cardinal Lemoine,,48.846802,2.3521555
Appartement de Ernest Hemingway,Rue du Cardinal Lemoine,,48.8448459,2.3495962
Résidence Rollin,Rue Rollin,,48.8448083,2.350314
One Hour,Rue Émile Lepeu 75011,,48.8558602,2.3883293
Neoness,,"Tu-Fr 07:00-22:00; Sa 09:00-19:00; Su 09:00-17:00; PH ""Voir neoness.fr""",48.8295159,2.3258589
Galerie Esther Woerdehoff,,We-Sa 12:00-19:00,48.8425838,2.3151896
Foire du Trône,,Mo-Su 12:00-00:00,48.8320026,2.4043366
Majestic,Rue Française,,48.8637765,2.3475818
Fuz.re,Rue de la Réunion 75020,We 19:00-22:00,48.8533468,2.4029971
SimplonLab,,We 17:00-20:00,48.8605899,2.4106308
Gym flash,,Mo-Su 06:00-23:00,48.8345476,2.3022899
galerie Ménil'8,Rue Boyer 75020,,48.8672658,2.3928623
"La Belle Equipe: Boxe, Coaching and other things",Rue d'Abbeville 75010,,48.8791831,2.349764
Magic Form,,"Mo-Fr 08:00-22:00; Sa,Su 09:00-18:00",48.8897582,2.3689781
L'Espace Bikram Paris,Rue Meissonier 75017,Mo-Fr 06:30-22:00; Sa-Su 09:30-20:00,48.8831202,2.3042736
Citeco: Cité de l'économie et de la monnaie,Place du Général Catroux 75017,"Tu-Fr,Su 10:00-18:00, Sa 10:00-19:00",48.8818908,2.3106965
Atelier Chorégraphique,Allée des Eiders,,48.8931031,2.3785045
École de Danse Clothilde Kieffert,Rue du Docteur Leray 75013,,48.8230918,2.3549177
École de danse de Paris Cyril Cerveau,"17 Rue du Faubourg du Temple, 75010 Paris",,48.8684612,2.3658816
Paris Mambo - École de danse à Paris 12ème,"48 Rue de la Gare de Reuilly, 75012 Paris",,48.8420454,2.3962685
Studio Danse Pilates Paris,"18 Passage de la Main d'Or, 75011 Paris",,48.8527383,2.3785242
École de Danse : Studio l'Envol,Rue de la Montagne Sainte-Geneviève 75005,,48.8480594,2.3484384
La Danse Alain et Françoise Chantraine,"68 Avenue Denfert-Rochereau, 75014 Paris",,48.8385197,2.3360414
Théâtre de la Danse,"77 Rue de Charonne, 75011 Paris",,48.8538834,2.3813733
LAX Dance Studio,"18bis Villa Riberolle, 75020 Paris",,48.8579322,2.396942
PARIS DANCE SCHOOL,"Sport & Danse, 40 Rue Quincampoix, 75004 Paris",,48.8608094,2.3504713
"Éléphant Paname, Centre d'Art et de Danse","10 Rue Volney, 75002 Paris",,48.8693706,2.3300219
Callesol,"14 Rue Rémy Dumoncel, 75014 Paris",,48.8298058,2.3325443
Studio DTM - Danse Théâtre et Musique,"6, rue de la Folie Méricourt 75011 is, 6 Rue de la Folie Méricourt, 75011 Paris",,48.8615816,2.3751074
École de danse Amana Studio,"21 Rue Froidevaux, 75014 Paris",,48.8354287,2.328803
Comme on danse !,"54 Avenue Philippe-Auguste, 75011 Paris",,48.8529253,2.3933516
"Eden Samia Raqs Danse Orientale paris,Académie de danse de montparnasse","92 Boulevard du Montparnasse, 75014 Paris",,48.8426918,2.3268801
Danse des 5 rythmes®,"18 Rue du Faubourg du Temple, 75011 Paris",,48.8681604,2.3664399
École de danse Terpsichore Paris,"89 Cours de Vincennes, 75020 Paris",,48.8476938,2.4082939
DanseVie,"5 Rue du Moulin Vert, 75014 Paris",,48.8291557,2.3256739
Académie de Danse Montparnasse,"92 bis Boulevard du Montparnasse, 75014 Paris",,48.8426556,2.3269941
"CADENCE : Centre pour l'Art, la Danse, l'ENseignement et la CulturE","78 Boulevard Raspail, 75006 Paris",,48.8481016,2.327587
ZE art studio,"17 Rue Saint-Marc, 75002 Paris",,48.8703697,2.3404294
Cours de Danse saint Blaise isabelle Klobukowski,"5 Rue Saint-Blaise, 75020 Paris",,48.8600673,2.4044997
Let's Dance Studio,Rue Tournefort 75005,,48.8439297,2.3480304
COURS TANGO PARIS,Rue Jussieu 75005,,48.8469785,2.353535
Temps'Danse14,"43 Rue des Thermopyles, 75014 Paris",,48.8333778,2.317754
Lazzarelli Frederic,"10 Rue Notre-Dame-de-Nazareth, 75003 Paris 75003",,48.8671339,2.3613834
Studio HEART POINT,"10 Villa Riberolle, 75020 Paris",,48.8577499,2.3969537
Atelier 9 danse et Pilates,"5 Rue Mayran, 75009 Paris",,48.8770593,2.3456709
École de Danse Nathalie Gustine,"16 Rue Dupleix, 75015 Paris",,48.8517,2.2973146
EMANA La Danse,"UFR STAPS, 1 Rue Lacretelle, 75015 Paris",,48.8338252,2.2909663
Pole Dance Paris,"111 Rue de Montreuil, 75011 Paris",,48.8508701,2.3954019
École de danse contemporaine Isabelle Journiac,"11 Avenue Vavin, 75006 Paris",,48.8437779,2.332221
Cap Kizomba,"78 Rue de la Tombe Issoire, 75014 Paris",,48.8284062,2.3326756
Pole dance Paris,"42 Rue d'Avron, 75020 Paris",,48.8519073,2.4022253
Dooplé Danse,"9 Allée des Vergers, 75012 Paris",,48.8335281,2.396467
École et Cours de Danse Classique adultes Antoinette Rabier,"23 Rue de la Sourdière, 75001 Paris",,48.866482,2.3324986
Studio Bleu Danse,"14 Boulevard Poissonnière, 75009 Paris",,48.8711295,2.3464075
Studio de Danse des Abbesses,Rue Véron,,48.8843512,2.337123
LeStudio Club Arty,Rue de la Victoire,,48.875242,2.3368116
académie franco américaine de danse,Rue de Babylone,,48.8516502,2.3193309
Ménagerie de verre,"12 Rue Lechevin, 75011 Paris",,48.8631805,2.3769308
Carreau du temple,"2 Rue Perrée, 75003 Paris",,48.8642117,2.3626233
École de danse classique Agnès Faure,"6 Avenue George V, 75008 Paris",,48.8654534,2.301717
Dojo Eric Pariset,,"Tu 11:30-14:00,17:30-20:30; We 15:30-19:30; Th 11:30-14:00,17:30-21:30; Fr 16:30-20:30; Sa 09:30-12:30,15:00-17:30",48.8418568,2.4026658
La roulotte à vapeur,"3 Rue des Vignoles, 75020 Paris",,48.8532641,2.3977327
Mickaël Bilionnière - Cours Hip Hop,"41 Rue du Temple, 75004 Paris",,48.8595894,2.3539882
Fluctuart,,Mo-Su 12:00-24:00,48.8630802,2.3099155
Musée Pierre Cardin,Rue Saint-Merri,,48.85905,2.3533259
Delicate Balance,Rue Jeanne d'Arc,,48.8316479,2.3661073
Gadeumedia,,Tu-Sa 10:30-19:00,48.8827734,2.3136443
Le Musée du Fumeur,,Mo-Sa 12:30-19:30,48.8586455,2.382222
Kairos Escape Game,Rue Sedaine 75011,Su-We 09:30-23:00; Fr-Sa 09:30-00:00,48.8569679,2.3749107
Les Cercles de la Forme,Rue Guyton de Morveau,Mo-Th 09:00-21:00; Fr 09:00-20:00; Sa 09:00-17:00; Su 09:00-13:00,48.8247374,2.3481177
Neoness,,Mo-Fr 07:00-22:00; Sa 09:00-19:00; Su 09:00-17:00,48.8293119,2.3459588
Micadanses,,"Mo,Tu,Th,Fr 09:30-13:30",48.8545284,2.3562308
Nr'gym,Rue des Pyrénées 75020,,48.8739357,2.3888862
FabLab Sorbonne Université,Place Jussieu 75005,"Tu,Th-Fr 15:00-18:30",48.8451322,2.3572363
Neoness,,Mo-Fr 07:00-22:00; Sa 09:00-19:00; Su 09:00-17:00,48.8683735,2.3410595
Vertical'Art Pigalle,,Mo-Su 08:00-00:00,48.8823801,2.3390122
L'Appart Fitness,,"Mo-Th 09:00-21:00; Fr 10:00-20:00; Su 09:00-13:00; Sa 09:00-13:00,14:00-17:00",48.823989,2.3454034
Loo&Lou Gallery,Rue Notre-Dame-de-Nazareth 75003,,48.8672191,2.3604075
Le 8 assure,Allée Louis de Funès 75008,,48.8764889,2.3059703
VR & Co,Boulevard Saint-Michel 75005,,48.848475,2.3418054
Team-Time,,Mo-Su 10:00-22:00,48.8741206,2.3456129
La Fab.,Place Jean-Michel Basquiat 75013,Tu-Sa 11:00-19:00,48.8314826,2.3750604
Paris Pinball Museum,Rue du Mont Cenis 75018,Sa-Su 14:30,48.8973362,2.3467198
Keep cool,,Mo-Su 06:00-23:00,48.831734,2.3390731
Les ateliers 33,,Mo-Sa 10:00-19:30,48.8288191,2.3298691
Galerie XXI,,Tu-Sa 14:00-19:00,48.8368222,2.3311908
Point Soleil,,Mo-Sa 09:00-21:00; Su 09:00-20:30,48.8284475,2.326326
Cemtre Momboyé,Rue Boyer 75020,Mo-Fr 19:00-22:00; Sa 10:00-18:00,48.8686915,2.3920054
Unleash Escape,Rue Henri Desgrange 75012,Mo-Sa 10:00-24:00; Su 10:00-24:00,48.8394524,2.3810733
Salle Principale,Rue de Thionville,We-Fr 14:00-19:00; Sa 11:00-19:00,48.8895057,2.3841931
Galerie Mitterrand,,Tu-Sa 11:00-19:00,48.8613252,2.3560687
Galerie Wagner,,We-Sa 14:30-19:30,48.85405,2.340527
Insula,Rue des Grands Augustins 75006,,48.8537642,2.3402431
Skatepark de la Chapelle,Boulevard de la Chapelle 75018,,48.8843107,2.357811
Galerie Collin,Rue Daubenton 75005,Tu-Sa 14:00-19:30,48.8401041,2.3501827
Espace Lafayette-Drouot,Rue du Faubourg Montmartre 75009,,48.8746536,2.3416796
WTPR Fish,North Brewer Street 38242,,36.3032506,-88.324432
Galerie Héloïse,,Th-Su 16:00-20:00,48.8312491,2.3689032
Galerie 1à7,,"Tu-Fr 13:00-19:00, Sa 11:00-19:00",48.8545244,2.3408877
Neoness,,Mo-Fr 07:00-22:00; Sa 09:00-19:00; Su 09:00-17:00,48.8651267,2.3499372
Convergences,,Tu-Sa 14:00-19:00,48.8603876,2.3619829
Fitness boutique,,Mo-Sa 10:00-20:30,48.8648628,2.3515174
Atelier Jacques Camus,Rue des Patriarches 75005,Mo-Fr 10:00-12:30; Sa 10:00-15:00; Su 10:00-13:00,48.8410052,2.3505959
Ritm - La Motte Picquet,,Mo-Fr 07:00-22:00; Sa-Su 09:00-19:00,48.8498684,2.2986866
Scope,,24/7,48.8263206,2.3825338
Fitness Park,,Mo-Su 06:00-23:00,48.8885281,2.315286
Galerie Nathalie Obadia,,Mo-Sa 11:00-19:00,48.8588218,2.3516509
Climbing District Batignolles,Rue Mstislav Rostropovitch 75017,mo-su 07:00-24:00,48.8911894,2.3105121
Perrotin,,Mo-Sa 11:00-19:00,48.8701329,2.3128501
Galerie Hopkins,Avenue Matignon 75008,,48.8700619,2.3127076
Pandore,,Mo-Su 10:00-22:00,48.8596114,2.3766841
Galerie Jérôme Poggi,Rue Beaubourg 75004,Tu-Sa 11:00-19:00,48.860358,2.3532208
Chronofit,,"Mo-Fr 07:00-14:00,17:00-20:00; Sa-Su 09:00-15:00",48.8317685,2.3280612
Galerie Myriam Bouagal,Rue du Pont aux Choux 75003,,48.8613371,2.3649338
Galerie Daniel Maghen,,Tu-Sa 10:30-19:00,48.8621211,2.3416109
Ad Solem,,Tu-Sa 11:00-19:00,48.8859832,2.3218139
Musée de l'illusion Paris,Rue Saint-Denis 75001,Su-We 10:00-20:00; Th-Sa 10:00-22:00,48.8633339,2.3499575
Michel Rein,,Tu-Sa 11:00-19:00,48.8577371,2.3645903
Gymnase des Lilas,Rue des Lilas,,48.878452,2.3954555
Mur du gymnase des Lilas,Rue des Lilas,,48.8783646,2.3954333
ESC 15 escalade,Rue du Général Guillaumat 75015,,48.8275898,2.2940341
Gymnase de Choisy,Avenue de Choisy,,48.8204917,2.3647676
Neoness,Boulevard de Belleville 75011,,48.8683462,2.3808589
Laser World,,Mo-Tu 17:00-22:00; We 13:00-22:00; Th-Fr 15:00-23:00; Sa 10:00-23:59; Su 10:00-20:00,48.839807,2.3355581
Satya Yoga,Rue de la Fontaine au Roi,,48.8685269,2.3700598
Gymnase Communal Camou,Avenue de la Bourdonnais 75007,,48.8583622,2.2993248
Galerie Hussenot,,Tu-Su 11:00-19:00,48.8614755,2.3571625
Spree Café,Rue la Vieuville 75018,,48.8847205,2.3397801
La Panse de l'Ours,Rue la Vieuville 75018,,48.8846029,2.3393748
I-Gallery,Rue Durantin 75018,,48.885666,2.3371778
Club Parisien de Self Défense,Rue André Antoine 75018,,48.8841211,2.3376108
Mind's Eye,Rue Saint-Jacques,,48.8438829,2.341953
Le Triangle,François truffaut 75012,Mo-Su 07:00-00:00,48.832988,2.3856966
Caminito,Rue Deguerry,,48.868562,2.3727129
PA_1074,Rue du Cirque,,48.8712506,2.3157226
Lubliner Art,Passage des Abbesses,,48.8851891,2.338287
Le Five Paris 18,Rue d'Aubervilliers 75018,,48.8978291,2.369787
Fondation Azzedine Alaia,Rue de la Verrerie 75004,,48.8573239,2.354868
Climbing District Buttes-Chaumont,Rue de Meaux 75019,Mo-Fr 07:00-00:00; Sa-Su 08:00-00:00,48.8815868,2.3734136
Strouk,,Tu-Sa 11:00-19:00,48.8563296,2.3367058
Galerie Corcia,Rue Saint-Martin 75003,,48.8675019,2.3545255
Basic-Fit,Boulevard Macdonald 75019,Mo-Fr 06:00-22:30; Sa-Su 09:00-19:00,48.8983828,2.3767371
LOREM,Rue des Mariniers 75014,,48.8274676,2.3111074
Galerie Collection privée - Le 33 mai,Rue Le Regrattier 75004,We-Mo 11:00-20:00,48.8526068,2.3549082
Espace Oberkampf,,We-Sa 14:00-18:30,48.8663429,2.3806851
Aquarium tropical,Avenue Dausmenil 75012,Tu-Fr 10:00-17:30; Sa-Su 10:00-19:00,48.8351982,2.4090773
Le Bureau Des Légendes : L’escape Game Immersif,,"Mo-Fr 16:00-23:45, Sa-Su 09:00-23:45",48.8499765,2.3397931
Gamescape,Rue de la Pierre levée,,48.8677972,2.3700318
Atelier V,Rue Casimir Delavigne 75006,,48.8502803,2.3392672
Vertical'Art Chevaleret,Rue du Chevaleret,Mo-Su 08:00-00:00,48.8335023,2.3686051
On air fitness,Boulevard Voltaire 75011,Mo-Su 06:00-23:00,48.8552326,2.3840505
Les Cinq Toits,Boulevard Exelmans 75016,Mo-Fr 08:00-21:00; Sa-Su 10:00-21:00,48.8418509,2.2615831
Les Amarres,Quai d'Austerlitz 75013,,48.8389856,2.3722333
L'aiguillage,,Tu-Sa 16:00-19:00,48.830892,2.3789143
Spot 13,,Tu-Su 11:00-18:00,48.825711,2.3859121
KeepCool,Rue Marcadet 75018,"PH,Mo-Su 06:00-23:00",48.8924001,2.3300553
Galerie Openspace,Boulevard Richard Lenoir,,48.8645674,2.3710862
L'Orange Bleue,,Mo-Su 06:00-23:00,48.863346,2.3496925
Rue Sans Fraise - Galerie RSF,Rue Française 75001,,48.8645063,2.3476092
Body Hit,,"Mo-Fr 08:00-14:00,17:00-21:00, Sa 09:00-13:00,14:00-18:00",48.8548674,2.3705923
Basic-Fit,Boulevard de Strasbourg,"Mo-Fr 06:00-22:30; Sa, Su 09:00-19:00",48.8715477,2.3552585
Lorem Fablab,Allée du Chef d'Escadron de Guillebon 75014,"Mo-Fr 10:00-12:00,14:00-19:00; Sa 10:00-13:00,14:00-18:00",48.8403944,2.3200338
Galerie Iham,,"Tu-Sa 10:30-13:00, 14:00-19:00",48.8525533,2.3676652
fab city hub,Rue de Mouzaïa 75019,,48.8801534,2.3976477
Galerie Italienne,Rue du Louvre 75001,Tu-Fr 10:00-19:00; Sa 11:00-19:00,48.8636229,2.3420458
Gymnase Suzanne Berlioux,75001,,48.8626971,2.3443508
Neoness,,Mo-Fr 07:00-22:00; Sa 09:00-19:00; Su 09:00-17:00,48.8308328,2.375945
Galerie Vazieux,,Tu-Sa 12:00-19:00,48.8619957,2.3412146
Galerie Derouillon,,We-Sa 14:00-19:00,48.8640414,2.3490549
Smart Body,,Mo-Sa 09:00-20:00; Su 10:00-18:00,48.8565562,2.2799467
L'Atlas,Cour de l'Île Louviers 74004,We-Sa 12:00-19:00; Su 12:00-17:00,48.8495206,2.3629997
Galerie Maubert,Rue Saint-Gilles 75003,Tu-Sa 13:00-19:00,48.8579856,2.3660603
Galerie EPOCA,Rue Saint-Gilles 75003,,48.8578549,2.3660462
Hyzer,,Tu-Th 12:00-21:00; Fr-Sa 12:00-23:00; Su 13:00-20:00,48.8528792,2.3355798
Leavinroom,Boulevard Pereire,10:00-23:00,48.8880167,2.3077669
Marguo,Rue des Minimes 75003,Tu-Sa 11:00-19:00,48.8571764,2.3669175
Europa Expérience,,We-Mo 10:00-18:00,48.8707339,2.3258194
Naya,Rue des Tournelles 75004,,48.8550961,2.3673442
Galerie Droste,,Tu-Sa 14:00-19:00,48.8621739,2.3594404
Galerie Robert Philippy,Rue Norvins 75018,,48.8869407,2.3403407
Galerie d'Art Céramique,Rue des Saules 75018,,48.887237,2.3396393
Bodyhit Paris 12 Daumesnil Electrostimulation,,"Mo-Fr 08:00-14:00, 17:00-21:00; Sa 10:00-14:00",48.8402816,2.394526
Galerie Chappe,Rue André Barsacq 75018,,48.8850876,2.3417406
Mon Stade,Rue Elsa Morante 75013,Mo-Fr 08:00-21:15; Sa 09:00-14:00,48.8282517,2.3821848
Prizoners,Rue Quincampoix,,48.8597847,2.3498489
Ritm - Champs Elysées,,Mo-Fr 07:00-22:00; Sa-Su 09:00-19:00,48.871182,2.304417
Ritm - La Fontaine,,Mo-Fr 07:00-22:00; Sa-Su 09:00-19:00,48.8507325,2.2710327
Art + art galerie,Rue de la Fontaine au Roi,,48.8681996,2.3713564
Galerie des Patriarches,Rue des Patriarches 75005,,48.8409085,2.3505788
Labociné.com,Rue du Docteur Paquelin 75020,,48.8690666,2.4029377
Kyudo Art et Pratique,Rue Jean Leclaire 75017,"Sa 09:00-11:00, 12:00-14:00",48.8966229,2.3273509
Iris,,"Su-Fr 11:00-14:00,15:00-19:00; Sa 11:00-20:00",48.8533144,2.3411398
Galerie Laurent Godin,,Tu-Sa 11:00-19:00,48.8254211,2.3735685
Studio 16,Rue Nicolo 75116,Mo-Sa 09:00-20:00,48.8611301,2.2760447
KeepCool,,06:00-23:00,48.8682172,2.3466852
Basic-Fit,Boulevard du Montparnasse 75014,Mo-Fr 06:00-22:30; Sa-Su 09:00-19:00,48.8407348,2.3327071
Radicants,Rue Commines 75003,"""by appointment""",48.8621873,2.3664326
Basic-Fit,,Mo-Fr 06:00-22:30; Sa-Su 09:00-19:00; PH 09:00-16:00,48.82945,2.3756437
Paris-New York,,Mo-Fr 11:00-18:00; PH closed,48.8623128,2.3736064
Re'corps,boulevard de Reuilly,,48.8385414,2.3917674
H Tec Fit,,"Mo-Fr 08:30-14:00,17:00-20:00, Sa 09:00-13:00",48.8354796,2.2947571
Les Ingéniaux,,"Tu-Fr 10:00-19:00, Sa 10:00-13:00",48.829981,2.3532326
Libre est l'art,Rue Notre-Dame-de-Nazareth 75003,,48.8676027,2.3577422
JPS gallery,Rue Notre-Dame-de-Nazareth 75003,,48.8671342,2.3610829
Bodyhit,,"Mo-Fr 08:00-14:00, 16:30-21:00; Sa 09:00-15:00",48.8623246,2.3555061
Bodyhit,,"Mo-Fr 08:00-14:00, 17:00-21:00; Sa 10:00-13:00, 14:00-17:00",48.8590776,2.2744213
Bodyhit,,"Mo-Fr 08:00-14:00, 17:00-21:00",48.866085,2.363606
Bodyhit,,Mo-Sa 09:00-20:00,48.8786117,2.283526
Les Cercles de la forme,Rue de Bagnolet 75020,,48.8613543,2.4056391
Bodyhit,,"Mo-Fr 08:00-14:00, 16:30-21:00; Sa 09:30-12:30, 13:30-16:30",48.8466221,2.3762824
Bodyhit Paris 6 Rennes / Montparnasse,,"Mo-Th 08:00-14:00, 17:00-21:00; Fr 08:00-14:00, 16:00-21:00; Sa 09:30-18:30",48.845233,2.324173
Bodyhit Paris 5 Jussieu Electrostimulation,,"Mo-Fr 08:00-14:00, 17:00-21:00; Sa 09:00-15:00; Su 09:00-13:00",48.8455643,2.3544095
Bodyhit Paris 13 Place D'italie Electrostimulation,,"Mo-Fr 08:00-14:00, 16:30-21:00; Sa 09:00-13:00, 14:30-18:00; Su 09:00-14:00",48.8332914,2.355285
Neoness Nation,Rue de Lagny 75020,,48.8491759,2.4087575
Bowling Front de Seine,Rue Gaston de Caillavet 75015,,48.8492059,2.2843452
Gymnase Pelleport,Rue Pelleport 75020,,48.87287,2.3980914
UnitedWeArt,Rue Saint-Martin 75003,,48.8681161,2.3549399
Gymate,Rue Saint-Martin 75003,,48.8677875,2.3550577
School Galery,Rue Saint-Martin 75003,,48.8681673,2.3553329
Bodyhit Paris 20 Nation Electrostimulation,,"Mo-Fr 08:00-14:00, 17:00-21:00; Sa 09:00-14:00, 16:00-19:00",48.8489021,2.4005657
Neoness,Passage Louis-Philippe 75011,Mo-Fr 07:00-22:00; Sa 09:00-19:00; Su 09:00-17:00,48.8540821,2.3731808
Le consulat,Avenue Parmentier 75011,,48.8595685,2.3795089
Galerie Alexandre Frederic,Galerie Véro-Dodat 75001,,48.8627749,2.3404537
Galerie Daniel Greiner,Galerie Véro-Dodat 75001,,48.8627914,2.3404015
Pierre Gonalons,Galerie Véro-Dodat 75001,,48.862807,2.3403649
Galerie du Passage,Galerie Véro-Dodat 75001,,48.8628958,2.3401151
Lamar County Historical Museum,West Kaufman Street 75460,Fr-Sa 10:00-16:00,33.6592701,-95.5661904
Valley of the Caddo Museum and Cultural Center,Bonham Street 75460,Fr-Sa 10:00-16:00,33.6598759,-95.5669661
Neoness,Avenue du Maine 75014,mo-fr 7-22 sa 09-19 su 09-17,48.8293009,2.3260518
Espace Crozatier,Rue Crozatier 75012,,48.8485526,2.380527
Hell Out,Rue Sedaine 75011,,48.8566339,2.3740745
Climbing District Saint-Lazare,Rue de Saint-Pétersbourg 75008,Mo-Fr 07:00-00:00; Sa-Su 08:00-00:00,48.8819101,2.3258686
Le coin des arts,Rue de Turenne 75003,"Tu-Sa 11:00-13:00, 14:00-19:00",48.8584967,2.364377
Sheriff Gallery,Rue de Turenne 75003,Tu-Fr 14:00-18:30; Sa 11:00-19:00,48.8586402,2.364371
Millésime,,Mo-Sa 10:00-20:00,48.8410772,2.3443577
